[Satellite]
VERSION=1.1
NAME=NIGERIAEDUSAT-1
NICKNAME=NIGERIAEDUSAT-1
TLE1=1 42824U 98067MY  18020.46206685  .00015752  00000-0  18464-3 0  9994
TLE2=2 42824  51.6387  29.4607 0006017   3.0047 357.0982 15.61687287 30691
